start=new Date('2022-05-11T00:00:00.000Z').valueOf();
sats=[{"TIME_SYSTEM":"UTC","TLE_LINE2":"2 51897  53.2167 167.1323 0001389  54.4450 149.0795 15.63760523  3682","COUNTRY_CODE":"US","SITE":"AFETR","PERIAPSIS":"375.870","MEAN_MOTION_DDOT":"0.0000000000000","RCS_SIZE":"LARGE","MEAN_ANOMALY":"149.0795","APOAPSIS":"377.746","ELEMENT_SET_NO":"999","TLE_LINE1":"1 51897U 22022AX  22130.75001157 -.00709607  00000-0 -81163-2 0  9994","SEMIMAJOR_AXIS":"6754.943","NORAD_CAT_ID":"51897","PERIOD":"92.086","DECAY_DATE":null,"MEAN_MOTION_DOT":"-0.00709607","CLASSIFICATION_TYPE":"U","MEAN_ELEMENT_THEORY":"SGP4","OBJECT_TYPE":"PAYLOAD","OBJECT_ID":"2022-022AX","CENTER_NAME":"EARTH","ARG_OF_PERICENTER":"54.4450","EPOCH":"2022-05-10T18:00:00.999648","MEAN_MOTION":"15.63760523","FILE":"3439673","GP_ID":"203230564","REF_FRAME":"TEME","ECCENTRICITY":"0.00013890","BSTAR":"-0.00811630000000","INCLINATION":"53.2167","REV_AT_EPOCH":"368","EPHEMERIS_TYPE":"0","OBJECT_NAME":"STARLINK-3598","LAUNCH_DATE":"2022-03-03","RA_OF_ASC_NODE":"167.1323"},{"COUNTRY_CODE":"US","SITE":"AFETR","TLE_LINE2":"2 51898  53.2167 167.1366 0001331  57.4844 146.7723 15.63764461  3687","TIME_SYSTEM":"UTC","RCS_SIZE":"LARGE","MEAN_MOTION_DDOT":"0.0000000000000","PERIAPSIS":"375.897","APOAPSIS":"377.696","ELEMENT_SET_NO":"999","MEAN_ANOMALY":"146.7723","TLE_LINE1":"1 51898U 22022AY  22130.75001157 -.00708982  00000-0 -81074-2 0  9991","SEMIMAJOR_AXIS":"6754.931","NORAD_CAT_ID":"51898","PERIOD":"92.085","DECAY_DATE":null,"CENTER_NAME":"EARTH","MEAN_MOTION_DOT":"-0.00708982","CLASSIFICATION_TYPE":"U","OBJECT_TYPE":"PAYLOAD","MEAN_ELEMENT_THEORY":"SGP4","OBJECT_ID":"2022-022AY","EPOCH":"2022-05-10T18:00:00.999648","MEAN_MOTION":"15.63764461","FILE":"3439673","GP_ID":"203230395","REF_FRAME":"TEME","ARG_OF_PERICENTER":"57.4844","BSTAR":"-0.00810740000000","ECCENTRICITY":"0.00013310","REV_AT_EPOCH":"368","EPHEMERIS_TYPE":"0","LAUNCH_DATE":"2022-03-03","OBJECT_NAME":"STARLINK-3597","RA_OF_ASC_NODE":"167.1366","INCLINATION":"53.2167"},{"GP_ID":"203230486","REF_FRAME":"TEME","MEAN_MOTION":"15.49885443","EPOCH":"2022-05-10T18:00:00.999648","FILE":"3439673","ARG_OF_PERICENTER":"38.8687","CENTER_NAME":"EARTH","CLASSIFICATION_TYPE":"U","OBJECT_TYPE":"PAYLOAD","MEAN_ELEMENT_THEORY":"SGP4","OBJECT_ID":"2022-025A","MEAN_MOTION_DOT":"-0.00012110","OBJECT_NAME":"STARLINK-3700","LAUNCH_DATE":"2022-03-09","RA_OF_ASC_NODE":"193.4665","REV_AT_EPOCH":"368","EPHEMERIS_TYPE":"0","INCLINATION":"53.2130","BSTAR":"-0.00020572000000","ECCENTRICITY":"0.00019330","RCS_SIZE":"LARGE","MEAN_MOTION_DDOT":"0.0000000000000","PERIAPSIS":"415.749","COUNTRY_CODE":"US","SITE":"AFETR","TLE_LINE2":"2 51956  53.2130 193.4665 0001933  38.8687 355.7246 15.49885443  3682","TIME_SYSTEM":"UTC","DECAY_DATE":null,"TLE_LINE1":"1 51956U 22025A   22130.75001157 -.00012110  00000-0 -20572-3 0  9997","SEMIMAJOR_AXIS":"6795.198","PERIOD":"92.910","NORAD_CAT_ID":"51956","ELEMENT_SET_NO":"999","APOAPSIS":"418.376","MEAN_ANOMALY":"355.7246"},{"EPHEMERIS_TYPE":"0","REV_AT_EPOCH":"368","RA_OF_ASC_NODE":"193.5297","LAUNCH_DATE":"2022-03-09","OBJECT_NAME":"STARLINK-3694","INCLINATION":"53.2126","BSTAR":"-0.00012906000000","ECCENTRICITY":"0.00016490","FILE":"3439673","EPOCH":"2022-05-10T18:00:00.999648","MEAN_MOTION":"15.49898578","REF_FRAME":"TEME","GP_ID":"203230569","ARG_OF_PERICENTER":"0.9118","CENTER_NAME":"EARTH","MEAN_MOTION_DOT":"-0.00007773","MEAN_ELEMENT_THEORY":"SGP4","OBJECT_TYPE":"PAYLOAD","OBJECT_ID":"2022-025B","CLASSIFICATION_TYPE":"U","NORAD_CAT_ID":"51957","PERIOD":"92.909","TLE_LINE1":"1 51957U 22025B   22130.75001157 -.00007773  00000-0 -12906-3 0  9999","SEMIMAJOR_AXIS":"6795.159","DECAY_DATE":null,"APOAPSIS":"418.145","ELEMENT_SET_NO":"999","MEAN_ANOMALY":"38.3802","RCS_SIZE":"LARGE","PERIAPSIS":"415.904","MEAN_MOTION_DDOT":"0.0000000000000","SITE":"AFETR","COUNTRY_CODE":"US","TLE_LINE2":"2 51957  53.2126 193.5297 0001649   0.9118  38.3802 15.49898578  3688","TIME_SYSTEM":"UTC"},{"DECAY_DATE":null,"TLE_LINE1":"1 51958U 22025C   22130.75001157 -.00003761  00000-0 -58219-4 0  9991","SEMIMAJOR_AXIS":"6795.039","NORAD_CAT_ID":"51958","PERIOD":"92.907","APOAPSIS":"418.175","ELEMENT_SET_NO":"999","MEAN_ANOMALY":"358.0464","RCS_SIZE":"LARGE","PERIAPSIS":"415.633","MEAN_MOTION_DDOT":"0.0000000000000","COUNTRY_CODE":"US","SITE":"AFETR","TLE_LINE2":"2 51958  53.2130 193.4785 0001870  37.5041 358.0464 15.49939776  3684","TIME_SYSTEM":"UTC","LAUNCH_DATE":"2022-03-09","OBJECT_NAME":"STARLINK-3692","RA_OF_ASC_NODE":"193.4785","REV_AT_EPOCH":"368","EPHEMERIS_TYPE":"0","INCLINATION":"53.2130","BSTAR":"-0.00005821900000","ECCENTRICITY":"0.00018700","GP_ID":"203230400","REF_FRAME":"TEME","EPOCH":"2022-05-10T18:00:00.999648","MEAN_MOTION":"15.49939776","FILE":"3439673","ARG_OF_PERICENTER":"37.5041","CENTER_NAME":"EARTH","CLASSIFICATION_TYPE":"U","OBJECT_TYPE":"PAYLOAD","OBJECT_ID":"2022-025C","MEAN_ELEMENT_THEORY":"SGP4","MEAN_MOTION_DOT":"-0.00003761"},{"MEAN_MOTION":"15.49872926","EPOCH":"2022-05-10T18:00:00.999648","FILE":"3439673","GP_ID":"203230314","REF_FRAME":"TEME","ARG_OF_PERICENTER":"28.8950","CENTER_NAME":"EARTH","MEAN_MOTION_DOT":"-0.00095458","CLASSIFICATION_TYPE":"U","OBJECT_ID":"2022-025D","OBJECT_TYPE":"PAYLOAD","MEAN_ELEMENT_THEORY":"SGP4","REV_AT_EPOCH":"368","EPHEMERIS_TYPE":"0","LAUNCH_DATE":"2022-03-09","OBJECT_NAME":"STARLINK-3704","RA_OF_ASC_NODE":"193.5154","INCLINATION":"53.2125","BSTAR":"-0.00169510000000","ECCENTRICITY":"0.00017990","RCS_SIZE":"LARGE","PERIAPSIS":"415.877","MEAN_MOTION_DDOT":"0.0000000000000","COUNTRY_CODE":"US","SITE":"AFETR","TLE_LINE2":"2 51959  53.2125 193.5154 0001799  28.8950   9.5837 15.49872926  3687","TIME_SYSTEM":"UTC","TLE_LINE1":"1 51959U 22025D   22130.75001157 -.00095458  00000-0 -16951-2 0  9991","SEMIMAJOR_AXIS":"6795.234","PERIOD":"92.911","NORAD_CAT_ID":"51959","DECAY_DATE":null,"ELEMENT_SET_NO":"999","APOAPSIS":"418.322","MEAN_ANOMALY":"9.5837"},{"ECCENTRICITY":"0.00019410","BSTAR":"0.00412690000000","INCLINATION":"53.2157","REV_AT_EPOCH":"368","EPHEMERIS_TYPE":"0","OBJECT_NAME":"STARLINK-3691","LAUNCH_DATE":"2022-03-09","RA_OF_ASC_NODE":"193.5348","MEAN_MOTION_DOT":"0.00239782","CLASSIFICATION_TYPE":"U","OBJECT_ID":"2022-025E","OBJECT_TYPE":"PAYLOAD","MEAN_ELEMENT_THEORY":"SGP4","CENTER_NAME":"EARTH","ARG_OF_PERICENTER":"32.7583","MEAN_MOTION":"15.49730877","EPOCH":"2022-05-10T18:00:00.999648","FILE":"3439673","GP_ID":"203230830","REF_FRAME":"TEME","MEAN_ANOMALY":"7.2778","APOAPSIS":"418.834","ELEMENT_SET_NO":"999","TLE_LINE1":"1 51960U 22025E   22130.75001157  .00239782  00000-0  41269-2 0  9991","SEMIMAJOR_AXIS":"6795.650","PERIOD":"92.919","NORAD_CAT_ID":"51960","DECAY_DATE":null,"TLE_LINE2":"2 51960  53.2157 193.5348 0001941  32.7583   7.2778 15.49730877  3681","TIME_SYSTEM":"UTC","COUNTRY_CODE":"US","SITE":"AFETR","PERIAPSIS":"416.196","MEAN_MOTION_DDOT":"0.0000000000000","RCS_SIZE":"LARGE"},{"INCLINATION":"53.2124","REV_AT_EPOCH":"368","EPHEMERIS_TYPE":"0","LAUNCH_DATE":"2022-03-09","OBJECT_NAME":"STARLINK-3689","RA_OF_ASC_NODE":"193.4910","ECCENTRICITY":"0.00016540","BSTAR":"-0.00009748500000","ARG_OF_PERICENTER":"30.7948","EPOCH":"2022-05-10T18:00:00.999648","MEAN_MOTION":"15.49857253","FILE":"3439673","GP_ID":"203230227","REF_FRAME":"TEME","MEAN_MOTION_DOT":"-0.00005975","CLASSIFICATION_TYPE":"U","OBJECT_TYPE":"PAYLOAD","MEAN_ELEMENT_THEORY":"SGP4","OBJECT_ID":"2022-025F","CENTER_NAME":"EARTH","SEMIMAJOR_AXIS":"6795.280","TLE_LINE1":"1 51961U 22025F   22130.75001157 -.00005975  00000-0 -97485-4 0  9992","PERIOD":"92.912","NORAD_CAT_ID":"51961","DECAY_DATE":null,"MEAN_ANOMALY":"5.8900","APOAPSIS":"418.269","ELEMENT_SET_NO":"999","PERIAPSIS":"416.021","MEAN_MOTION_DDOT":"0.0000000000000","RCS_SIZE":"LARGE","TLE_LINE2":"2 51961  53.2124 193.4910 0001654  30.7948   5.8900 15.49857253  3683","TIME_SYSTEM":"UTC","COUNTRY_CODE":"US","SITE":"AFETR"},{"ECCENTRICITY":"0.00022320","BSTAR":"-0.00009254800000","INCLINATION":"53.2129","OBJECT_NAME":"STARLINK-3697","LAUNCH_DATE":"2022-03-09","RA_OF_ASC_NODE":"193.5608","REV_AT_EPOCH":"368","EPHEMERIS_TYPE":"0","CLASSIFICATION_TYPE":"U","OBJECT_ID":"2022-025G","OBJECT_TYPE":"PAYLOAD","MEAN_ELEMENT_THEORY":"SGP4","MEAN_MOTION_DOT":"-0.00005701","CENTER_NAME":"EARTH","ARG_OF_PERICENTER":"42.9352","GP_ID":"203230744","REF_FRAME":"TEME","MEAN_MOTION":"15.49880830","EPOCH":"2022-05-10T18:00:00.999648","FILE":"3439673","MEAN_ANOMALY":"358.9727","APOAPSIS":"418.593","ELEMENT_SET_NO":"999","DECAY_DATE":null,"SEMIMAJOR_AXIS":"6795.211","TLE_LINE1":"1 51962U 22025G   22130.75001157 -.00005701  00000-0 -92548-4 0  9995","PERIOD":"92.910","NORAD_CAT_ID":"51962","TIME_SYSTEM":"UTC","TLE_LINE2":"2 51962  53.2129 193.5608 0002232  42.9352 358.9727 15.49880830  3687","COUNTRY_CODE":"US","SITE":"AFETR","MEAN_MOTION_DDOT":"0.0000000000000","PERIAPSIS":"415.560","RCS_SIZE":"LARGE"},{"ARG_OF_PERICENTER":"38.1307","GP_ID":"203230657","REF_FRAME":"TEME","EPOCH":"2022-05-10T18:00:00.999648","MEAN_MOTION":"15.49903649","FILE":"3439673","CLASSIFICATION_TYPE":"U","OBJECT_TYPE":"PAYLOAD","MEAN_ELEMENT_THEORY":"SGP4","OBJECT_ID":"2022-025H","MEAN_MOTION_DOT":"-0.00002858","CENTER_NAME":"EARTH","INCLINATION":"53.2134","OBJECT_NAME":"STARLINK-3675","LAUNCH_DATE":"2022-03-09","RA_OF_ASC_NODE":"193.5029","REV_AT_EPOCH":"368","EPHEMERIS_TYPE":"0","ECCENTRICITY":"0.00018930","BSTAR":"-0.00004237100000","PERIAPSIS":"415.723","MEAN_MOTION_DDOT":"0.0000000000000","RCS_SIZE":"LARGE","TIME_SYSTEM":"UTC","TLE_LINE2":"2 51963  53.2134 193.5029 0001893  38.1307 359.1796 15.49903649  3683","COUNTRY_CODE":"US","SITE":"AFETR","DECAY_DATE":null,"SEMIMAJOR_AXIS":"6795.145","TLE_LINE1":"1 51963U 22025H   22130.75001157 -.00002858  00000-0 -42371-4 0  9995","PERIOD":"92.909","NORAD_CAT_ID":"51963","MEAN_ANOMALY":"359.1796","APOAPSIS":"418.296","ELEMENT_SET_NO":"999"}];
